ONEWEB-0319             
1 49105U 21075AG  25355.63462421  .00000039  00000+0  67667-4 0  9999
2 49105  87.9100  41.1752 0001887 112.4974 247.6358 13.17650915210228
ONEWEB-0323             
1 49106U 21075AH  25355.63689363  .00000044  00000+0  86493-4 0  9990
2 49106  87.8933  25.9115 0001902 116.5216 243.6108 13.12429963211263
ONEWEB-0329             
1 49107U 21075AJ  25355.64308890  .00000033  00000+0  50828-4 0  9996
2 49107  87.9098  41.1748 0001667 101.3526 258.7793 13.17647949210204
ONEWEB-0330             
1 49108U 21075AK  25355.64390711 -.00000008  00000+0 -52900-4 0  9997
2 49108  87.9100  41.1808 0001524  99.6430 260.4874 13.17650492210242
ONEWEB-0292             
1 49186U 21083A   25355.51939588  .00000084  00000+0  19489-3 0  9995
2 49186  87.8968 355.5697 0001804  95.2888 264.8447 13.13472330207606
ONEWEB-0303             
1 49187U 21083B   25355.75302252 -.00000009  00000+0 -54317-4 0  9993
2 49187  87.9176  10.6936 0001828  97.5636 262.5704 13.18686801206599
ONEWEB-0306             
1 49188U 21083C   25355.59136991 -.00000033  00000+0 -11554-3 0  9993
2 49188  87.9175  10.7098 0001715  85.8617 274.2711 13.18686957206616
ONEWEB-0307             
1 49189U 21083D   25355.51348274  .00000026  00000+0  37237-4 0  9992
2 49189  87.8965 355.5620 0001771  89.7414 270.3918 13.13471171207605
